{"type": "FeatureCollection", "features": [ {"type": "Feature", "properties": {"norad_id": 66849, "name": "STARLINK-36102", "group": "last-30-days", "lat": 5.517169385881824, "lon": 58.39169941989255, "alt_km": 390.8155528255011, "timestamp": "2025-12-24T05:51:18.326549+00:00", "meta": {"OBJECT_NAME": "STARLINK-36102", "OBJECT_ID": "2025-281B", "EPOCH": "2025-12-23T22:00:01.999584", "MEAN_MOTION": 15.60048644, "ECCENTRICITY": 0.00015057, "INCLINATION": 43.0003, "RA_OF_ASC_NODE": 54.382, "ARG_OF_PERICENTER": 267.6557, "MEAN_ANOMALY": 61.1354, "EPHEMERIS_TYPE": 0, "CLASSIFICATION_TYPE": "U", "NORAD_CAT_ID": 66849, "ELEMENT_SET_NO": 999, "REV_AT_EPOCH": 318, "BSTAR": -0.027205515, "MEAN_MOTION_DOT": -0.01989114, "MEAN_MOTION_DDOT": 0}, "tle": {"line1": "1 66849U 25281B   25357.91668981 -.01989114  00000+0 -27206-1 0  9993", "line2": "2 66849  43.0003  54.3820 0001505 267.6557  61.1354 15.60048644  3186"}}, "geometry": {"type": "Point", "coordinates": [58.39169941989255, 5.517169385881824]}}, {"type": "Feature", "properties": {"norad_id": 66850, "name": "STARLINK-36105", "group": "last-30-days", "lat": 6.816149835163878, "lon": 59.806635172201446, "alt_km": 390.59997329869566, "timestamp": "2025-12-24T05:51:18.326559+00:00", "meta": {"OBJECT_NAME": "STARLINK-36105", "OBJECT_ID": "2025-281C", "EPOCH": "2025-12-23T22:00:01.999584", "MEAN_MOTION": 15.60045516, "ECCENTRICITY": 0.00015416, "INCLINATION": 43.0003, "RA_OF_ASC_NODE": 54.377, "ARG_OF_PERICENTER": 271.0851, "MEAN_ANOMALY": 59.6263, "EPHEMERIS_TYPE": 0, "CLASSIFICATION_TYPE": "U", "NORAD_CAT_ID": 66850, "ELEMENT_SET_NO": 999, "REV_AT_EPOCH": 318, "BSTAR": -0.027188692, "MEAN_MOTION_DOT": -0.01987851, "MEAN_MOTION_DDOT": 0}, "tle": {"line1": "1 66850U 25281C   25357.91668981 -.01987851  00000+0 -27189-1 0  9991", "line2": "2 66850  43.0003  54.3770 0001541 271.0851  59.6263 15.60045516  3184"}}, "geometry": {"type": "Point", "coordinates": [59.806635172201446, 6.816149835163878]}}, {"type": "Feature", "properties": {"norad_id": 66851, "name": "STARLINK-36094", "group": "last-30-days", "lat": 8.108068514547181, "lon": 61.22639972387425, "alt_km": 390.4593196316073, "timestamp": "2025-12-24T05:51:18.326571+00:00", "meta": {"OBJECT_NAME": "STARLINK-36094", "OBJECT_ID": "2025-281D", "EPOCH": "2025-12-23T22:00:01.999584", "MEAN_MOTION": 15.60049126, "ECCENTRICITY": 0.00013369, "INCLINATION": 43.0005, "RA_OF_ASC_NODE": 54.3724, "ARG_OF_PERICENTER": 269.5092, "MEAN_ANOMALY": 63.1148, "EPHEMERIS_TYPE": 0, "CLASSIFICATION_TYPE": "U", "NORAD_CAT_ID": 66851, "ELEMENT_SET_NO": 999, "REV_AT_EPOCH": 318, "BSTAR": -0.027217889, "MEAN_MOTION_DOT": -0.01989816, "MEAN_MOTION_DDOT": 0}, "tle": {"line1": "1 66851U 25281D   25357.91668981 -.01989816  00000+0 -27218-1 0  9998", "line2": "2 66851  43.0005  54.3724 0001336 269.5092  63.1148 15.60049126  3180"}}, "geometry": {"type": "Point", "coordinates": [61.22639972387425, 8.108068514547181]}}, {"type": "Feature", "properties": {"norad_id": 66852, "name": "STARLINK-35992", "group": "last-30-days", "lat": 9.39926539978408, "lon": 62.660159423820474, "alt_km": 390.2765275100992, "timestamp": "2025-12-24T05:51:18.326583+00:00", "meta": {"OBJECT_NAME": "STARLINK-35992", "OBJECT_ID": "2025-281E", "EPOCH": "2025-12-23T22:00:01.999584", "MEAN_MOTION": 15.60043175, "ECCENTRICITY": 0.00014418, "INCLINATION": 43.0005, "RA_OF_ASC_NODE": 54.3678, "ARG_OF_PERICENTER": 271.878, "MEAN_ANOMALY": 62.6692, "EPHEMERIS_TYPE": 0, "CLASSIFICATION_TYPE": "U", "NORAD_CAT_ID": 66852, "ELEMENT_SET_NO": 999, "REV_AT_EPOCH": 318, "BSTAR": -0.027153634, "MEAN_MOTION_DOT": -0.01985372, "MEAN_MOTION_DDOT": 0}, "tle": {"line1": "1 66852U 25281E   25357.91668981 -.01985372  00000+0 -27154-1 0  9991", "line2": "2 66852  43.0005  54.3678 0001441 271.8780  62.6692 15.60043175  3182"}}, "geometry": {"type": "Point", "coordinates": [62.660159423820474, 9.39926539978408]}}, {"type": "Feature", "properties": {"norad_id": 66853, "name": "STARLINK-35986", "group": "last-30-days", "lat": 10.683596016607705, "lon": 64.10310660594374, "alt_km": 390.19748085346237, "timestamp": "2025-12-24T05:51:18.326593+00:00", "meta": {"OBJECT_NAME": "STARLINK-35986", "OBJECT_ID": "2025-281F", "EPOCH": "2025-12-23T22:00:01.999584", "MEAN_MOTION": 15.60046025, "ECCENTRICITY": 0.00015466, "INCLINATION": 43.0005, "RA_OF_ASC_NODE": 54.3628, "ARG_OF_PERICENTER": 269.1808, "MEAN_ANOMALY": 67.2804, "EPHEMERIS_TYPE": 0, "CLASSIFICATION_TYPE": "U", "NORAD_CAT_ID": 66853, "ELEMENT_SET_NO": 999, "REV_AT_EPOCH": 318, "BSTAR": -0.027159394, "MEAN_MOTION_DOT": -0.01986011, "MEAN_MOTION_DDOT": 0}, "tle": {"line1": "1 66853U 25281F   25357.91668981 -.01986011  00000+0 -27159-1 0  9998", "line2": "2 66853  43.0005  54.3628 0001546 269.1808  67.2804 15.60046025  3188"}}, "geometry": {"type": "Point", "coordinates": [64.10310660594374, 10.683596016607705]}}, {"type": "Feature", "properties": {"norad_id": 66854, "name": "STARLINK-36087", "group": "last-30-days", "lat": 11.960274894744222, "lon": 65.55707082806113, "alt_km": 390.04758447588756, "timestamp": "2025-12-24T05:51:18.326603+00:00", "meta": {"OBJECT_NAME": "STARLINK-36087", "OBJECT_ID": "2025-281G", "EPOCH": "2025-12-23T22:00:01.999584", "MEAN_MOTION": 15.60045914, "ECCENTRICITY": 0.0001522, "INCLINATION": 43.0007, "RA_OF_ASC_NODE": 54.3577, "ARG_OF_PERICENTER": 268.9128, "MEAN_ANOMALY": 69.4654, "EPHEMERIS_TYPE": 0, "CLASSIFICATION_TYPE": "U", "NORAD_CAT_ID": 66854, "ELEMENT_SET_NO": 999, "REV_AT_EPOCH": 318, "BSTAR": -0.027156623, "MEAN_MOTION_DOT": -0.01985807, "MEAN_MOTION_DDOT": 0}, "tle": {"line1": "1 66854U 25281G   25357.91668981 -.01985807  00000+0 -27157-1 0  9999", "line2": "2 66854  43.0007  54.3577 0001522 268.9128  69.4654 15.60045914  3183"}}, "geometry": {"type": "Point", "coordinates": [65.55707082806113, 11.960274894744222]}}, {"type": "Feature", "properties": {"norad_id": 66855, "name": "STARLINK-36090", "group": "last-30-days", "lat": 13.22932393673629, "lon": 67.02547894854392, "alt_km": 389.90722927945535, "timestamp": "2025-12-24T05:51:18.326613+00:00", "meta": {"OBJECT_NAME": "STARLINK-36090", "OBJECT_ID": "2025-281H", "EPOCH": "2025-12-23T22:00:01.999584", "MEAN_MOTION": 15.60046263, "ECCENTRICITY": 0.00015062, "INCLINATION": 43.0005, "RA_OF_ASC_NODE": 54.3531, "ARG_OF_PERICENTER": 268.2055, "MEAN_ANOMALY": 72.0895, "EPHEMERIS_TYPE": 0, "CLASSIFICATION_TYPE": "U", "NORAD_CAT_ID": 66855, "ELEMENT_SET_NO": 999, "REV_AT_EPOCH": 306, "BSTAR": -0.027166691, "MEAN_MOTION_DOT": -0.01986465, "MEAN_MOTION_DDOT": 0}, "tle": {"line1": "1 66855U 25281H   25357.91668981 -.01986465  00000+0 -27167-1 0  9992", "line2": "2 66855  43.0005  54.3531 0001506 268.2055  72.0895 15.60046263  3068"}}, "geometry": {"type": "Point", "coordinates": [67.02547894854392, 13.22932393673629]}}, {"type": "Feature", "properties": {"norad_id": 66856, "name": "STARLINK-36072", "group": "last-30-days", "lat": 14.488668227855225, "lon": 68.50696819184226, "alt_km": 389.64741332959875, "timestamp": "2025-12-24T05:51:18.326622+00:00", "meta": {"OBJECT_NAME": "STARLINK-36072", "OBJECT_ID": "2025-281J", "EPOCH": "2025-12-23T22:00:01.999584", "MEAN_MOTION": 15.60047859, "ECCENTRICITY": 0.00013266, "INCLINATION": 43.0003, "RA_OF_ASC_NODE": 54.3476, "ARG_OF_PERICENTER": 271.1487, "MEAN_ANOMALY": 71.0622, "EPHEMERIS_TYPE": 0, "CLASSIFICATION_TYPE": "U", "NORAD_CAT_ID": 66856, "ELEMENT_SET_NO": 999, "REV_AT_EPOCH": 318, "BSTAR": -0.027210212, "MEAN_MOTION_DOT": -0.01989231, "MEAN_MOTION_DDOT": 0}, "tle": {"line1": "1 66856U 25281J   25357.91668981 -.01989231  00000+0 -27210-1 0  9996", "line2": "2 66856  43.0003  54.3476 0001326 271.1487  71.0622 15.60047859  3189"}}, "geometry": {"type": "Point", "coordinates": [68.50696819184226, 14.488668227855225]}}, {"type": "Feature", "properties": {"norad_id": 66857, "name": "STARLINK-36083", "group": "last-30-days", "lat": 15.74128827569603, "lon": 70.00914035473629, "alt_km": 389.4281301165647, "timestamp": "2025-12-24T05:51:18.326634+00:00", "meta": {"OBJECT_NAME": "STARLINK-36083", "OBJECT_ID": "2025-281K", "EPOCH": "2025-12-23T22:00:01.999584", "MEAN_MOTION": 15.60047371, "ECCENTRICITY": 0.00014397, "INCLINATION": 43.0004, "RA_OF_ASC_NODE": 54.3427, "ARG_OF_PERICENTER": 275.1975, "MEAN_ANOMALY": 68.9309, "EPHEMERIS_TYPE": 0, "CLASSIFICATION_TYPE": "U", "NORAD_CAT_ID": 66857, "ELEMENT_SET_NO": 999, "REV_AT_EPOCH": 318, "BSTAR": -0.027204988, "MEAN_MOTION_DOT": -0.01988946, "MEAN_MOTION_DDOT": 0}, "tle": {"line1": "1 66857U 25281K   25357.91668981 -.01988946  00000+0 -27205-1 0  9993", "line2": "2 66857  43.0004  54.3427 0001439 275.1975  68.9309 15.60047371  3184"}}, "geometry": {"type": "Point", "coordinates": [70.00914035473629, 15.74128827569603]}}, {"type": "Feature", "properties": {"norad_id": 66858, "name": "STARLINK-35118", "group": "last-30-days", "lat": 16.982768054063666, "lon": 71.52915296039582, "alt_km": 389.3891340260452, "timestamp": "2025-12-24T05:51:18.326644+00:00", "meta": {"OBJECT_NAME": "STARLINK-35118", "OBJECT_ID": "2025-281L", "EPOCH": "2025-12-23T22:00:01.999584", "MEAN_MOTION": 15.60048026, "ECCENTRICITY": 0.00015536, "INCLINATION": 43.0004, "RA_OF_ASC_NODE": 54.3378, "ARG_OF_PERICENTER": 270.961, "MEAN_ANOMALY": 75.0827, "EPHEMERIS_TYPE": 0, "CLASSIFICATION_TYPE": "U", "NORAD_CAT_ID": 66858, "ELEMENT_SET_NO": 999, "REV_AT_EPOCH": 297, "BSTAR": -0.027175325, "MEAN_MOTION_DOT": -0.01987172, "MEAN_MOTION_DDOT": 0}, "tle": {"line1": "1 66858U 25281L   25357.91668981 -.01987172  00000+0 -27175-1 0  9990", "line2": "2 66858  43.0004  54.3378 0001553 270.9610  75.0827 15.60048026  2974"}}, "geometry": {"type": "Point", "coordinates": [71.52915296039582, 16.982768054063666]}}]}